{
  "type": "FeatureCollection",
  "features": [
    {
      "type": "Feature",
      "properties": {
        "norad_id": 31441,
        "name": "FENGYUN 1C DEB",
        "group": "fengyun-1c-debris",
        "lat": -58.28734683012129,
        "lon": -135.09525261907052,
        "alt_km": 591.4150405784831,
        "timestamp": "2025-12-12T16:50:33.427179+00:00",
        "meta_object_name": "FENGYUN 1C DEB",
        "meta_object_id": "1999-025BUD",
        "meta_epoch": "2025-12-07T08:28:41.429856",
        "meta_mean_motion": 14.7453624,
        "meta_eccentricity": 0.01049906,
        "meta_inclination": 99.3118,
        "meta_ra_of_asc_node": 203.3613,
        "meta_arg_of_pericenter": 352.0587,
        "meta_mean_anomaly": 7.8951,
        "meta_ephemeris_type": 0,
        "meta_classification_type": "U",
        "meta_norad_cat_id": 31441,
        "meta_element_set_no": 999,
        "meta_rev_at_epoch": 64011,
        "meta_bstar": 0.0080507132,
        "meta_mean_motion_dot": 0.0005895,
        "meta_mean_motion_ddot": 0,
        "tle_line1": "1 31441U 99025BUD 25341.35325729  .00058950  00000+0  80507-2 0  9997",
        "tle_line2": "2 31441  99.3118 203.3613 0104990 352.0587   7.8951 14.74536240640115"
      },
      "geometry": {
        "type": "Point",
        "coordinates": [
          -135.09525261907052,
          -58.28734683012129
        ]
      }
    },
    {
      "type": "Feature",
      "properties": {
        "norad_id": 31442,
        "name": "FENGYUN 1C DEB",
        "group": "fengyun-1c-debris",
        "lat": -58.47163861890164,
        "lon": 86.84181833670743,
        "alt_km": 768.0781049910829,
        "timestamp": "2025-12-12T16:50:33.427189+00:00",
        "meta_object_name": "FENGYUN 1C DEB",
        "meta_object_id": "1999-025BUE",
        "meta_epoch": "2025-12-10T11:31:37.831008",
        "meta_mean_motion": 14.3392245,
        "meta_eccentricity": 0.00792158,
        "meta_inclination": 98.5305,
        "meta_ra_of_asc_node": 70.4894,
        "meta_arg_of_pericenter": 19.4196,
        "meta_mean_anomaly": 340.9978,
        "meta_ephemeris_type": 0,
        "meta_classification_type": "U",
        "meta_norad_cat_id": 31442,
        "meta_element_set_no": 999,
        "meta_rev_at_epoch": 97328,
        "meta_bstar": 0.00052575283,
        "meta_mean_motion_dot": 1.474e-05,
        "meta_mean_motion_ddot": 0,
        "tle_line1": "1 31442U 99025BUE 25344.48029897  .00001474  00000+0  52575-3 0  9996",
        "tle_line2": "2 31442  98.5305  70.4894 0079215  19.4196 340.9978 14.33922450973284"
      },
      "geometry": {
        "type": "Point",
        "coordinates": [
          86.84181833670743,
          -58.47163861890164
        ]
      }
    },
    {
      "type": "Feature",
      "properties": {
        "norad_id": 31443,
        "name": "FENGYUN 1C DEB",
        "group": "fengyun-1c-debris",
        "lat": 3.57018984144847,
        "lon": 85.59508010724491,
        "alt_km": 740.7556883197703,
        "timestamp": "2025-12-12T16:50:33.427200+00:00",
        "meta_object_name": "FENGYUN 1C DEB",
        "meta_object_id": "1999-025BUF",
        "meta_epoch": "2025-12-11T12:38:45.505248",
        "meta_mean_motion": 14.48655746,
        "meta_eccentricity": 0.01921011,
        "meta_inclination": 99.21,
        "meta_ra_of_asc_node": 84.8939,
        "meta_arg_of_pericenter": 101.8292,
        "meta_mean_anomaly": 260.4514,
        "meta_ephemeris_type": 0,
        "meta_classification_type": "U",
        "meta_norad_cat_id": 31443,
        "meta_element_set_no": 999,
        "meta_rev_at_epoch": 66924,
        "meta_bstar": 0.0025436854,
        "meta_mean_motion_dot": 0.00012069,
        "meta_mean_motion_ddot": 0,
        "tle_line1": "1 31443U 99025BUF 25345.52691557  .00012069  00000+0  25437-2 0  9999",
        "tle_line2": "2 31443  99.2100  84.8939 0192101 101.8292 260.4514 14.48655746669245"
      },
      "geometry": {
        "type": "Point",
        "coordinates": [
          85.59508010724491,
          3.57018984144847
        ]
      }
    },
    {
      "type": "Feature",
      "properties": {
        "norad_id": 31444,
        "name": "FENGYUN 1C DEB",
        "group": "fengyun-1c-debris",
        "lat": -26.927088848251753,
        "lon": -66.68366881121341,
        "alt_km": 673.9962498264058,
        "timestamp": "2025-12-12T16:50:33.427211+00:00",
        "meta_object_name": "FENGYUN 1C DEB",
        "meta_object_id": "1999-025BUG",
        "meta_epoch": "2025-12-08T13:18:21.037824",
        "meta_mean_motion": 14.69793542,
        "meta_eccentricity": 0.0062632,
        "meta_inclination": 98.9278,
        "meta_ra_of_asc_node": 284.2035,
        "meta_arg_of_pericenter": 85.0243,
        "meta_mean_anomaly": 275.8106,
        "meta_ephemeris_type": 0,
        "meta_classification_type": "U",
        "meta_norad_cat_id": 31444,
        "meta_element_set_no": 999,
        "meta_rev_at_epoch": 97427,
        "meta_bstar": 0.0020662,
        "meta_mean_motion_dot": 0.0001267,
        "meta_mean_motion_ddot": 0,
        "tle_line1": "1 31444U 99025BUG 25342.55441016  .00012670  00000+0  20662-2 0  9996",
        "tle_line2": "2 31444  98.9278 284.2035 0062632  85.0243 275.8106 14.69793542974274"
      },
      "geometry": {
        "type": "Point",
        "coordinates": [
          -66.68366881121341,
          -26.927088848251753
        ]
      }
    },
    {
      "type": "Feature",
      "properties": {
        "norad_id": 31447,
        "name": "FENGYUN 1C DEB",
        "group": "fengyun-1c-debris",
        "lat": 19.69566459183405,
        "lon": 24.704492245773228,
        "alt_km": 660.6500297752464,
        "timestamp": "2025-12-12T16:50:33.427221+00:00",
        "meta_object_name": "FENGYUN 1C DEB",
        "meta_object_id": "1999-025BUK",
        "meta_epoch": "2025-12-08T20:00:32.884416",
        "meta_mean_motion": 14.24029872,
        "meta_eccentricity": 0.02304586,
        "meta_inclination": 98.9916,
        "meta_ra_of_asc_node": 23.9949,
        "meta_arg_of_pericenter": 6.4135,
        "meta_mean_anomaly": 353.9906,
        "meta_ephemeris_type": 0,
        "meta_classification_type": "U",
        "meta_norad_cat_id": 31447,
        "meta_element_set_no": 999,
        "meta_rev_at_epoch": 64796,
        "meta_bstar": 0.00031342384,
        "meta_mean_motion_dot": 8.95e-06,
        "meta_mean_motion_ddot": 0,
        "tle_line1": "1 31447U 99025BUK 25342.83371394  .00000895  00000+0  31342-3 0  9995",
        "tle_line2": "2 31447  98.9916  23.9949 0230458   6.4135 353.9906 14.24029872647966"
      },
      "geometry": {
        "type": "Point",
        "coordinates": [
          24.704492245773228,
          19.69566459183405
        ]
      }
    },
    {
      "type": "Feature",
      "properties": {
        "norad_id": 31448,
        "name": "FENGYUN 1C DEB",
        "group": "fengyun-1c-debris",
        "lat": 32.74595552304003,
        "lon": -7.526332881856975,
        "alt_km": 838.768792332663,
        "timestamp": "2025-12-12T16:50:33.427231+00:00",
        "meta_object_name": "FENGYUN 1C DEB",
        "meta_object_id": "1999-025BUL",
        "meta_epoch": "2025-12-11T07:02:55.403520",
        "meta_mean_motion": 14.278066,
        "meta_eccentricity": 0.00588763,
        "meta_inclination": 98.5011,
        "meta_ra_of_asc_node": 356.6233,
        "meta_arg_of_pericenter": 208.3666,
        "meta_mean_anomaly": 151.4306,
        "meta_ephemeris_type": 0,
        "meta_classification_type": "U",
        "meta_norad_cat_id": 31448,
        "meta_element_set_no": 999,
        "meta_rev_at_epoch": 64283,
        "meta_bstar": 0.0011152887,
        "meta_mean_motion_dot": 2.766e-05,
        "meta_mean_motion_ddot": 0,
        "tle_line1": "1 31448U 99025BUL 25345.29369680  .00002766  00000+0  11153-2 0  9990",
        "tle_line2": "2 31448  98.5011 356.6233 0058876 208.3666 151.4306 14.27806600642836"
      },
      "geometry": {
        "type": "Point",
        "coordinates": [
          -7.526332881856975,
          32.74595552304003
        ]
      }
    },
    {
      "type": "Feature",
      "properties": {
        "norad_id": 31449,
        "name": "FENGYUN 1C DEB",
        "group": "fengyun-1c-debris",
        "lat": 17.3587272127986,
        "lon": 42.51968680949146,
        "alt_km": 811.6360579002767,
        "timestamp": "2025-12-12T16:50:33.427243+00:00",
        "meta_object_name": "FENGYUN 1C DEB",
        "meta_object_id": "1999-025BUM",
        "meta_epoch": "2025-12-10T21:12:43.510752",
        "meta_mean_motion": 14.33705066,
        "meta_eccentricity": 0.0144053,
        "meta_inclination": 98.5553,
        "meta_ra_of_asc_node": 43.4188,
        "meta_arg_of_pericenter": 274.279,
        "meta_mean_anomaly": 84.1945,
        "meta_ephemeris_type": 0,
        "meta_classification_type": "U",
        "meta_norad_cat_id": 31449,
        "meta_element_set_no": 999,
        "meta_rev_at_epoch": 97610,
        "meta_bstar": 0.00033048,
        "meta_mean_motion_dot": 9.81e-06,
        "meta_mean_motion_ddot": 0,
        "tle_line1": "1 31449U 99025BUM 25344.88383693  .00000981  00000+0  33048-3 0  9990",
        "tle_line2": "2 31449  98.5553  43.4188 0144053 274.2790  84.1945 14.33705066976103"
      },
      "geometry": {
        "type": "Point",
        "coordinates": [
          42.51968680949146,
          17.3587272127986
        ]
      }
    }
  ]
}